OBJECT_NAME,OBJECT_ID,EPOCH,MEAN_MOTION,ECCENTRICITY,INCLINATION,RA_OF_ASC_NODE,ARG_OF_PERICENTER,MEAN_ANOMALY,EPHEMERIS_TYPE,CLASSIFICATION_TYPE,NORAD_CAT_ID,ELEMENT_SET_NO,REV_AT_EPOCH,BSTAR,MEAN_MOTION_DOT,MEAN_MOTION_DDOT
BEIDOU-3S IGSO-1S (C31),2015-019A,2026-07-22T20:41:06.522720,1.00291059,.00386968,49.1249,295.0310,195.6676,212.2841,0,U,40549,999,4143,0,-.173E-5,0
GPS BIIF-10 (PRN 08),2015-033A,2026-07-23T02:52:57.859104,2.00554565,.011551,53.9555,265.6030,30.2978,330.4370,0,U,40730,999,8071,0,-.1E-6,0
BEIDOU-3S M2S (C58),2015-037A,2026-07-23T20:03:48.042144,1.86232145,.0009656,54.8359,300.7831,256.8157,103.1127,0,U,40748,999,7480,0,-.9E-6,0
BEIDOU-3S M1S (C57),2015-037B,2026-07-23T12:02:52.935648,1.86255010,.0002543,54.8328,300.7823,62.0343,298.0267,0,U,40749,999,7480,0,-.93E-6,0
GSAT0206 (GALILEO 10),2015-045B,2026-07-23T05:43:55.646400,1.70473660,.0002056,54.9377,220.6082,330.6429,29.3940,0,U,40890,999,6765,0,.75E-6,0
BEIDOU-3S IGSO-2S (C56),2015-053A,2026-07-23T03:09:20.778336,1.00251983,.00658964,49.1651,258.3502,193.8088,348.7982,0,U,40938,999,3971,0,-.85E-6,0
GPS BIIF-11 (PRN 10),2015-062A,2026-07-23T04:11:22.517088,2.00567136,.0113193,56.9840,29.4262,230.8504,128.1758,0,U,41019,999,7855,0,-.75E-6,0
GSAT-15 (GAGAN/PRN 139),2015-065A,2026-07-23T20:16:23.096064,1.00271101,.0003598,0.0964,262.8370,181.0493,255.2828,0,U,41028,999,3916,0,-.253E-5,0
GSAT0209 (GALILEO 12),2015-079A,2026-07-19T21:18:19.364832,1.70473671,.00046186,55.8457,100.3644,358.4074,1.6290,0,U,41174,999,6533,0,-.39E-6,0
GSAT0208 (GALILEO 11),2015-079B,2026-07-21T20:49:39.727488,1.70473606,.00042062,55.8455,100.3069,2.1198,357.9162,0,U,41175,999,6578,0,-.47E-6,0
IRNSS-1E,2016-003A,2026-07-21T00:43:29.481312,1.00275296,.0019282,33.3051,59.2585,176.3074,185.9195,0,U,41241,999,3842,0,-.317E-5,0
GPS BIIF-12 (PRN 32),2016-007A,2026-07-23T18:20:15.451008,2.00575540,.009668,55.5466,88.0089,247.5432,111.4806,0,U,41328,999,7657,0,-.65E-6,0
COSMOS 2514 (751),2016-008A,2026-07-23T10:02:13.433856,2.13102761,.0012557,64.9975,311.7630,202.1470,157.8201,0,U,41330,999,8139,0,-.88E-6,0
BEIDOU-2 IGSO-6 (C13),2016-021A,2026-06-26T02:38:38.671584,1.00258926,.0057558,60.2385,37.9495,231.0163,137.2672,0,U,41434,999,3757,0,-.145E-5,0
IRNSS-1G,2016-027A,2026-07-23T15:18:39.198816,1.00265396,.0005779,5.2835,96.6306,13.7876,190.1836,0,U,41469,999,3754,0,-.335E-5,0
GSAT0211 (GALILEO 14),2016-030A,2026-07-23T18:01:38.451936,1.70473768,.0003484,55.0884,220.6884,318.9701,41.0537,0,U,41549,999,6329,0,.77E-6,0
GSAT0210 (GALILEO 13),2016-030B,2026-07-23T10:07:22.478016,1.70473980,.000472,55.0870,220.6957,247.6947,112.3044,0,U,41550,999,6328,0,.76E-6,0
BEIDOU-2 G7 (C03),2016-037A,2026-07-23T20:21:15.128928,1.00269796,.0006194,1.8087,69.5627,2.7717,285.0973,0,U,41586,999,725,0,-.35E-5,0
EUTELSAT 117 WEST B (WAAS/PRN 131),2016-038B,2026-07-23T14:08:19.832352,1.00273737,.0000164,0.0071,180.9991,3.2430,212.1722,0,U,41589,999,3702,0,-.7E-7,0
GSAT0207 (GALILEO 15),2016-069A,2026-07-23T02:43:57.791712,1.70473642,.000437,55.5193,100.0917,341.3874,18.6303,0,U,41859,999,6001,0,-.48E-6,0
GSAT0212 (GALILEO 16),2016-069B,2026-07-22T23:12:51.206112,1.70473873,.0004376,55.5169,100.0907,16.3980,343.6497,0,U,41860,999,6026,0,-.48E-6,0
GSAT0213 (GALILEO 17),2016-069C,2026-07-22T03:52:09.801984,1.70474392,.00038148,55.5184,100.1209,320.5981,39.4080,0,U,41861,999,6011,0,-.48E-6,0
GSAT0214 (GALILEO 18),2016-069D,2026-07-21T03:13:28.463808,1.70473784,.00031418,55.5164,100.1420,335.1519,24.8684,0,U,41862,999,6022,0,-.45E-6,0
SES-15 (WAAS/PRN 133),2017-026A,2026-07-23T17:30:11.619360,1.00266677,.0000615,0.0313,314.6037,132.1158,348.1297,0,U,42709,999,779,0,.65E-6,0
QZS-2 (QZSS/PRN 194),2017-028A,2026-07-23T09:57:21.718944,1.00274629,.0756665,39.3751,242.6194,269.7024,80.6651,0,U,42738,999,798,0,-.112E-5,0
QZS-3 (QZSS/PRN 199),2017-048A,2026-07-23T20:25:52.186080,1.00268654,.0002894,0.0589,200.8435,286.8507,247.3495,0,U,42917,999,3262,0,-.343E-5,0
COSMOS 2522 (752),2017-055A,2026-07-23T06:08:23.776800,2.13101933,.0010863,64.0809,190.6566,240.6109,119.2865,0,U,42939,999,6874,0,.9E-6,0
QZS-4 (QZSS/PRN 195),2017-062A,2026-07-23T17:06:21.403008,1.00289002,.074693,40.0864,343.0203,268.7110,85.8328,0,U,42965,999,3217,0,-.35E-5,0
BEIDOU-3 M1 (C19),2017-069A,2026-07-23T02:37:05.943648,1.86231393,.0008826,56.7241,61.9009,327.7974,32.2132,0,U,43001,999,5927,0,-.73E-6,0
BEIDOU-3 M2 (C20),2017-069B,2026-07-22T12:15:49.300128,1.86231039,.00078145,56.7230,61.9567,0.0665,359.9968,0,U,43002,999,5925,0,-.77E-6,0
GSAT0215 (GALILEO 19),2017-079A,2026-07-21T14:58:16.716576,1.70474444,.00037652,55.0665,220.5584,269.3113,90.6885,0,U,43055,999,5357,0,.67E-6,0
